GLOBALSTAR M070         
1 32264U 07048B   23353.34560005 -.00000072  00000+0  17499-3 0  9997
2 32264  51.9768 351.3075 0000427  15.2603  94.1818 12.62282997744733
GLOBALSTAR M066         
1 32265U 07048C   23353.77146285 -.00000075  00000+0  16049-3 0  9998
2 32265  51.9653 212.0453 0001928  93.6518 343.2554 12.62278616747991
GLOBALSTAR M079         
1 37188U 10054A   23353.37181943 -.00000089  00000+0  84906-4 0  9997
2 37188  52.0059   1.3359 0000310 130.5477 337.3250 12.62270621607524
GLOBALSTAR M074         
1 37189U 10054B   23354.18339045 -.00000097  00000+0  36435-4 0  9999
2 37189  52.0040 358.2724 0000266  64.6804  13.1067 12.62263291608303
GLOBALSTAR M076         
1 37190U 10054C   23353.34463872 -.00000087  00000+0  91844-4 0  9998
2 37190  52.0051   0.9496 0000365 219.7771 243.2641 12.62264463607844
GLOBALSTAR M077         
1 37191U 10054D   23353.25371186 -.00000085  00000+0  10413-3 0  9995
2 37191  52.0088 317.9250 0000477  41.5831  67.6603 12.62267343608203
GLOBALSTAR M067 [+]     
1 32263U 07048A   23352.87548263 -.00000072  00000+0  19090-3 0  9994
2 32263  51.9697 194.4338 0000442 113.3165 350.3978 12.40635942741673
GLOBALSTAR M068 [-]     
1 32266U 07048D   23353.81362772 -.00000070  00000+0  19013-3 0  9994
2 32266  51.9856 164.6652 0001589  67.5133  37.8940 12.62774947748945
